ONEWEB-0205             
1 48226U 21031S   26014.37984232  .00000201  00000+0  50823-3 0  9993
2 48226  87.9025 320.3447 0001734  85.2315 274.9013 13.14502705228069
ONEWEB-0206             
1 48227U 21031T   26014.35287426 -.00000183  00000+0 -52678-3 0  9994
2 48227  87.9034 320.3441 0001768  70.2945 289.8376 13.14503319228018
ONEWEB-0182             
1 48228U 21031U   26014.34812179 -.00000119  00000+0 -35525-3 0  9994
2 48228  87.9010 320.3668 0001987  81.8904 278.2451 13.14503718228222
ONEWEB-0186             
1 48229U 21031V   26014.28311284  .00000222  00000+0  56511-3 0  9990
2 48229  87.9025 320.3617 0001718  82.4717 277.6607 13.14503019228167
ONEWEB-0181             
1 48230U 21031W   26014.33702442 -.00000128  00000+0 -37886-3 0  9999
2 48230  87.9016 320.4002 0001616  83.0511 277.0803 13.14502709228026
ONEWEB-0188             
1 48231U 21031X   26014.37507475  .00000285  00000+0  73313-3 0  9990
2 48231  87.9015 320.3899 0001760  79.8316 280.3012 13.14503743227932
ONEWEB-0220             
1 48232U 21031Y   26014.33859956 -.00000129  00000+0 -38264-3 0  9996
2 48232  87.9028 320.3495 0001796  86.8619 273.2716 13.14503716228193
ONEWEB-0165             
1 48233U 21031Z   26014.21492165  .00000255  00000+0  65455-3 0  9999
2 48233  87.9014 320.3962 0001402  81.8813 278.2476 13.14503419228135
